STARLINK-30119          
1 56823U 23079A   24226.59011976 -.00009489  00000+0 -68882-3 0  9995
2 56823  43.0027 341.5845 0001613 253.8821 106.1843 15.02505718 66348
STARLINK-30120          
1 56824U 23079B   24226.58677434  .00001117  00000+0  97717-4 0  9990
2 56824  42.9974 341.5562 0000765 250.7168 109.3592 15.02543308 66355
STARLINK-30084          
1 56825U 23079C   24226.58343268 -.00002082  00000+0 -13908-3 0  9999
2 56825  43.0028 341.5368 0001294 273.2044  86.8650 15.02538872 66346
STARLINK-30114          
1 56826U 23079D   24226.60007079 -.00000081  00000+0  90384-5 0  9991
2 56826  43.0030 341.4699 0001145 257.7323 102.3391 15.02536841 66999
STARLINK-30151          
1 56827U 23079E   24226.37734978 -.00003452  00000+0 -24055-3 0  9997
2 56827  43.0001 342.5547 0001001 251.5520 108.5213 15.02538533 66647
STARLINK-30152          
1 56828U 23079F   24226.37402478 -.00001901  00000+0 -12567-3 0  9997
2 56828  43.0058 342.5464 0001273 278.6021  81.4677 15.02538713 66648
STARLINK-30128          
1 56832U 23079K   24226.61164403 -.00002130  00000+0 -14260-3 0  9999
2 56832  43.0046 315.3239 0001284 282.1183  77.9515 15.02546891 60572
STARLINK-30131          
1 56833U 23079L   24226.60058075 -.00004654  00000+0 -32979-3 0  9996
2 56833  43.0040 315.3999 0001381 287.0574  73.0117 15.02522381 66979
STARLINK-30069          
1 56834U 23079M   24226.37068999  .00000044  00000+0  18377-4 0  9991
2 56834  43.0032 342.5156 0002059 264.1110  95.9498 15.02548989 66644
STARLINK-30144          
1 56835U 23079N   24226.36735771 -.00006924  00000+0 -49799-3 0  9996
2 56835  43.0028 342.4949 0001585 250.1622 109.9050 15.02537115 66644
STARLINK-30142          
1 56836U 23079P   24226.29755496  .00000289  00000+0  36445-4 0  9996
2 56836  43.0024 342.8316 0000716 271.0277  89.0484 15.02543985 66636
STARLINK-30133          
1 56837U 23079Q   24226.29421804  .00005179  00000+0  39788-3 0  9995
2 56837  43.0005 342.7956 0001307 267.9534  92.1158 15.02560950 66636
STARLINK-30123          
1 56838U 23079R   24226.60342367 -.00018494  00000+0 -13592-2 0  9997
2 56838  43.0018 341.5623 0001270 290.3576  69.7129 15.02490746 66671
STARLINK-30076          
1 56839U 23079S   24226.35737168  .00000363  00000+0  41897-4 0  9992
2 56839  43.0003 342.4073 0000374 286.4285  73.6516 15.02547504 66648
STARLINK-30073          
1 56840U 23079T   24226.27460499  .00000805  00000+0  74587-4 0  9998
2 56840  42.9978 330.3708 0000468 343.6351  16.4476 15.02546856 66777
STARLINK-30078          
1 56841U 23079U   24226.61995152  .00028425  00000+0  21094-2 0  9997
2 56841  43.0031 340.9501 0000742 216.3191 143.7601 15.02560410 66687
STARLINK-30135          
1 56842U 23079V   24226.59341747  .00002152  00000+0  17430-3 0  9999
2 56842  43.0031 341.5113 0000462 262.1707  97.9083 15.02539944 66676
STARLINK-30137          
1 56843U 23079W   24226.38067186  .00000851  00000+0  78050-4 0  9999
2 56843  43.0001 342.4945 0000386 258.5886 101.4913 15.02538347 66645
STARLINK-30136          
1 56844U 23079X   24226.60673039  .00000749  00000+0  70455-4 0  9992
2 56844  42.9976 341.6011 0000884 121.2360 238.8569 15.02556384 66672
STARLINK-6206           
1 56876U 23083A   24226.30377526 -.00001789  00000+0 -11748-3 0  9997
2 56876  43.0049 317.8042 0001632 267.5154  92.5502 15.02513299 65417
STARLINK-6209           
1 56877U 23083B   24226.56194944 -.00005326  00000+0 -37999-3 0  9994
2 56877  43.0051 316.2968 0001703 288.2271  71.8386 15.02482602 64658
STARLINK-6182           
1 56878U 23083C   24226.43562140 -.00000318  00000+0 -84953-5 0  9998
2 56878  43.0065 317.0659 0001654 250.7897 109.2767 15.02528700 65439
STARLINK-5707           
1 56879U 23083D   24226.56525766 -.00007255  00000+0 -52318-3 0  9991
2 56879  43.0013 316.3227 0002037 278.5036  81.5576 15.02485982 64652
STARLINK-6177           
1 56880U 23083E   24226.55526152 -.00017069  00000+0 -12534-2 0  9991
2 56880  43.0020 316.2457 0003066 276.9379  83.1115 15.02476485 64656
STARLINK-5853           
1 56881U 23083F   24226.56302554 -.00032636  00000+0 -24158-2 0  9993
2 56881  43.0032 316.3012 0001741 280.7086  79.3560 15.02477012 64652
STARLINK-6175           
1 56882U 23083G   24226.54970744 -.00018219  00000+0 -13392-2 0  9993
2 56882  43.0005 316.2053 0002483 269.5363  90.5195 15.02474551 65457
STARLINK-6171           
1 56883U 23083H   24226.55970017 -.00026168  00000+0 -19329-2 0  9996
2 56883  43.0022 316.2806 0000719 145.8912 214.1977 15.02466866 65451
STARLINK-5515           
1 56884U 23083J   24226.60954050 -.00017645  00000+0 -12966-2 0  9992
2 56884  43.0061 315.7951 0001815 262.6899  97.3737 15.02471399 65463
STARLINK-5095           
1 56885U 23083K   24226.55636013 -.00043757  00000+0 -32511-2 0  9994
2 56885  43.0039 316.2512 0001647 282.6791  77.3867 15.02456635 64652
STARLINK-5496           
1 56886U 23083L   24226.60841829 -.00024292  00000+0 -17923-2 0  9997
2 56886  43.0014 315.7840 0001592 253.0201 107.0467 15.02474991 65463
STARLINK-6180           
1 56887U 23083M   24226.61285229  .00013973  00000+0  10483-2 0  9991
2 56887  43.0008 315.8219 0002297 247.3992 112.6607 15.02502595 65464
STARLINK-6181           
1 56888U 23083N   24226.59509141 -.00028770  00000+0 -21275-2 0  9995
2 56888  43.0050 315.6782 0001445 245.3189 114.7503 15.02463422 65468
STARLINK-6169           
1 56889U 23083P   24226.60508065 -.00025495  00000+0 -18820-2 0  9995
2 56889  43.0041 315.7608 0001831 287.3404  72.7238 15.02477478 65466
STARLINK-5528           
1 56890U 23083Q   24226.52969941 -.00034362  00000+0 -25443-2 0  9994
2 56890  43.0003 316.0510 0000437 152.3435 207.7430 15.02489667 65454
STARLINK-6213           
1 56891U 23083R   24226.60176483 -.00019392  00000+0 -14273-2 0  9990
2 56891  43.0025 315.7315 0001592 246.4363 113.6312 15.02459577 65468
STARLINK-6219           
1 56892U 23083S   24226.32250125 -.00006017  00000+0 -43078-3 0  9992
2 56892  43.0047 317.0748 0002359 261.3308  98.7267 15.02528767 65421
STARLINK-6216           
1 56893U 23083T   24226.59842463 -.00022896  00000+0 -16886-2 0  9993
2 56893  43.0014 315.7077 0001697 228.4984 131.5712 15.02462986 65582
STARLINK-6144           
1 56894U 23083U   24226.52308561 -.00016385  00000+0 -12031-2 0  9997
2 56894  43.0023 316.0014 0001848 263.3901  96.6731 15.02459884 65577
STARLINK-6208           
1 56895U 23083V   24226.52528777 -.00022007  00000+0 -16214-2 0  9996
2 56895  43.0019 316.0172 0001456 252.5980 107.4703 15.02483956 65454
STARLINK-6202           
1 56896U 23083W   24226.51530828 -.00018101  00000+0 -13306-2 0  9995
2 56896  43.0033 315.9406 0001456 265.9664  94.1012 15.02471584 65567
STARLINK-6200           
1 56897U 23083X   24226.51866182  .00000059  00000+0  19543-4 0  9993
2 56897  43.0113 315.9632 0003216 269.3148  90.7326 15.02459362 65570
STARLINK-6205           
1 56898U 23083Y   24226.30916563 -.00004148  00000+0 -29207-3 0  9992
2 56898  42.9985 316.9737 0001052 260.5032  99.5692 15.02553941 65531
STARLINK-6203           
1 56899U 23083Z   24226.31252029 -.00008690  00000+0 -62946-3 0  9997
2 56899  43.0041 316.9962 0001042 271.1648  88.9075 15.02510291 65535
STARLINK-6207           
1 56900U 23083AA  24226.51234401 -.00003700  00000+0 -25917-3 0  9990
2 56900  42.9992 303.7782 0000815 228.1327 131.9446 15.02514027 65563
STARLINK-6185           
1 56901U 23083AB  24226.30697302 -.00003040  00000+0 -21011-3 0  9999
2 56901  43.0053 316.9551 0002062 261.8366  98.2243 15.02522493 65530
STARLINK-6195           
1 56902U 23083AC  24226.57548908 -.00002304  00000+0 -15559-3 0  9998
2 56902  42.9983 303.3868 0002335 266.2208  93.8368 15.02517491 65710
STARLINK-6192           
1 56903U 23083AD  24226.31029648  .00019734  00000+0  14723-2 0  9990
2 56903  43.0008 316.9816 0002082 252.4950 107.5665 15.02522089 65536
STARLINK-6193           
1 56904U 23083AE  24226.61866539 -.00010677  00000+0 -77774-3 0  9997
2 56904  43.0033 302.8581 0001442 241.0663 119.0035 15.02477222 65618
STARLINK-6183           
1 56905U 23083AF  24226.57992545 -.00029374  00000+0 -21722-2 0  9995
2 56905  43.0016 303.4311 0001656 276.8593  83.2061 15.02470983 65600
STARLINK-6098           
1 56906U 23083AG  24226.50014813 -.00010255  00000+0 -74623-3 0  9999
2 56906  43.0032 303.6904 0002170 263.3259  96.7336 15.02480990 65592
STARLINK-6110           
1 56907U 23083AH  24226.56995290 -.00014542  00000+0 -10653-2 0  9998
2 56907  43.0036 303.3540 0001392 253.8035 106.2655 15.02478147 65717
STARLINK-6186           
1 56908U 23083AJ  24226.49348397 -.00017231  00000+0 -12656-2 0  9994
2 56908  43.0016 303.6370 0001552 277.6537  82.4129 15.02476235 65592
STARLINK-5999           
1 56909U 23083AK  24226.50679656 -.00002839  00000+0 -19525-3 0  9993
2 56909  43.0043 303.7375 0002097 248.8098 111.2521 15.02514733 65702
STARLINK-6179           
1 56910U 23083AL  24226.61977264 -.00013543  00000+0 -99087-3 0  9998
2 56910  43.0034 302.8656 0001896 283.9463  76.1168 15.02479661 65614
STARLINK-6116           
1 56911U 23083AM  24226.49902079 -.00000265  00000+0 -45433-5 0  9992
2 56911  43.0037 303.6805 0001701 265.0745  94.9903 15.02523652 65594
STARLINK-5805           
1 56912U 23083AN  24226.61644585 -.00030521  00000+0 -22590-2 0  9996
2 56912  43.0024 302.8353 0001198 278.1555  81.9152 15.02454851 65613
STARLINK-5950           
1 56913U 23083AP  24226.49568996 -.00019680  00000+0 -14479-2 0  9994
2 56913  43.0010 303.6546 0001556 258.2765 101.7903 15.02482165 65593
STARLINK-5961           
1 56914U 23083AQ  24226.60979219 -.00027544  00000+0 -20360-2 0  9996
2 56914  43.0025 302.7889 0001494 252.3316 107.7363 15.02460216 65610
STARLINK-5965           
1 56915U 23083AR  24226.55552265 -.00024584  00000+0 -18147-2 0  9990
2 56915  43.0051 303.2417 0001514 277.1959  82.8711 15.02462719 65603
